NORAD_CAT_ID,OBJECT_NAME,OBJECT_TYPE,EPOCH,MEAN_MOTION,ECCENTRICITY,INCLINATION,RA_OF_ASC_NODE,ARG_OF_PERICENTER,MEAN_ANOMALY,BSTAR,MEAN_MOTION_DOT,MEAN_MOTION_DDOT,TLE_LINE0,TLE_LINE1,TLE_LINE2,SEMIMAJOR_AXIS,PERIOD,APOGEE,PERIGEE,DECAYED
52830.0,STARLINK-4091,PAYLOAD,2022-09-24 06:00:00,15.08866673,0.0001776999999999,53.2136,301.4262,55.7607,58.2439,-0.0014835999999999,-0.00023839,0.0,0 STARLINK-4091,1 52830U 22062A   22267.25001157 -.00023839  00000-0 -14836-2 0  9991,2 52830  53.2136 301.4262 0001777  55.7607  58.2439 15.08866673 15704,6917.799,95.436,540.893,538.435,0.0
52830.0,STARLINK-4091,PAYLOAD,2022-09-24 14:00:01,15.08853711,0.0001849,53.2134,299.9306,48.6093,77.0771,-0.00014689,-2.626e-05,0.0,0 STARLINK-4091,1 52830U 22062A   22267.58335648 -.00002626  00000-0 -14689-3 0  9990,2 52830  53.2134 299.9306 0001849  48.6093  77.0771 15.08853711  1300,6917.8380000000025,95.437,540.9830000000002,538.424,0.0
52830.0,STARLINK-4091,PAYLOAD,2022-09-24 22:00:00,15.08817803,0.0001639,53.2136,298.4324,52.6442,84.6007,0.0026149,0.00041549,0.0,0 STARLINK-4091,1 52830U 22062A   22267.91667824  .00041549  00000-0  26149-2 0  9999,2 52830  53.2136 298.4324 0001639  52.6442  84.6007 15.08817803  1304,6917.948,95.439,540.947,538.679,0.0
52830.0,STARLINK-4091,PAYLOAD,2022-09-25 06:00:00,15.08860417,0.000176,53.2137,296.9366,52.6407,96.1886,-0.0014224,-0.00022867,0.0,0 STARLINK-4091,1 52830U 22062A   22268.25001157 -.00022867  00000-0 -14224-2 0  9993,2 52830  53.2137 296.9366 0001760  52.6407  96.1886 15.08860417 15857,6917.818,95.436,540.901,538.465,0.0
52830.0,STARLINK-4091,PAYLOAD,2022-09-25 14:00:01,15.08848611,0.0001834,53.2135,295.4409,46.31399999999999,114.1261,-0.00092947,-0.00015054,0.0,0 STARLINK-4091,1 52830U 22062A   22268.58334491 -.00015054  00000-0 -92947-3 0  9998,2 52830  53.2135 295.4409 0001834  46.3140 114.1261 15.08848611  1308,6917.854,95.437,540.988,538.45,0.0
52830.0,STARLINK-4091,PAYLOAD,2022-09-26 00:00:00,15.08826894,0.0001682,53.2138,293.5682,53.5979,211.3403,7.286e-05,8.71e-06,0.0,0 STARLINK-4091,1 52830U 22062A   22269.00001157  .00000871  00000-0  72860-4 0  9998,2 52830  53.2138 293.5682 0001682  53.5979 211.3403 15.08826894  1301,6917.92,95.438,540.9490000000002,538.622,0.0
52830.0,STARLINK-4091,PAYLOAD,2022-09-26 10:00:00,15.0880446,0.0001955999999999,53.2139,291.6994,50.0701,319.3463,0.0010508,0.00016459,0.0,0 STARLINK-4091,1 52830U 22062A   22269.41667824  .00016459  00000-0  10508-2 0  9990,2 52830  53.2139 291.6994 0001956  50.0701 319.3463 15.08804460 16032,6917.989000000001,95.44,541.207,538.501,0.0
52830.0,STARLINK-4091,PAYLOAD,2022-09-26 14:00:01,15.08809769,0.0001936,53.2137,290.951,48.2817,146.9135,0.0014335,0.00022581,0.0,0 STARLINK-4091,1 52830U 22062A   22269.58334491  .00022581  00000-0  14335-2 0  9994,2 52830  53.2137 290.9510 0001936  48.2817 146.9135 15.08809769  1302,6917.973000000001,95.439,541.177,538.498,0.0
52830.0,STARLINK-4091,PAYLOAD,2022-09-27 00:00:00,15.08808828,0.0001781999999999,53.2139,289.0785,56.2333,243.4291,0.0027049,0.00042987,0.0,0 STARLINK-4091,1 52830U 22062A   22270.00001157  .00042987  00000-0  27049-2 0  9991,2 52830  53.2139 289.0785 0001782  56.2333 243.4291 15.08808828  1309,6917.976,95.44,541.073,538.6080000000002,0.0
52830.0,STARLINK-4091,PAYLOAD,2022-09-27 14:00:01,15.08837283,0.0001946,53.2137,286.4612,49.71,180.2184,0.00089209,0.00013937,0.0,0 STARLINK-4091,1 52830U 22062A   22270.58334491  .00013937  00000-0  89209-3 0  9994,2 52830  53.2137 286.4612 0001946  49.7100 180.2184 15.08837283 16209,6917.889,95.438,541.1,538.4069999999998,0.0
52830.0,STARLINK-4091,PAYLOAD,2022-09-27 22:00:01,15.08825896,0.0001766999999999,53.2138,284.9629,55.9892,185.6098,0.00314,0.00050021,0.0,0 STARLINK-4091,1 52830U 22062A   22270.91668981  .00050021  00000-0  31400-2 0  9999,2 52830  53.2138 284.9629 0001767  55.9892 185.6098 15.08825896  1304,6917.9230000000025,95.438,541.011,538.566,0.0
52830.0,STARLINK-4091,PAYLOAD,2022-09-28 14:00:01,15.08837655,0.0001841,53.2135,281.9714,49.1415,215.5968,0.00015593,2.194e-05,0.0,0 STARLINK-4091,1 52830U 22062A   22271.58334491  .00002194  00000-0  15593-3 0  9993,2 52830  53.2135 281.9714 0001841  49.1415 215.5968 15.08837655 16358,6917.888000000001,95.438,541.026,538.479,0.0
52830.0,STARLINK-4091,PAYLOAD,2022-09-28 22:00:00,15.08825173,0.0001724,53.2136,280.4733,57.1174,219.2144,0.0012064,0.00018956,0.0,0 STARLINK-4091,1 52830U 22062A   22271.91667824  .00018956  00000-0  12064-2 0  9991,2 52830  53.2136 280.4733 0001724  57.1174 219.2144 15.08825173  1303,6917.926,95.438,540.9830000000002,538.5980000000002,0.0
52830.0,STARLINK-4091,PAYLOAD,2022-09-29 14:00:01,15.08829443,0.0001949,53.2138,277.4818,53.0464,246.4406,-0.00059807,-9.791e-05,0.0,0 STARLINK-4091,1 52830U 22062A   22272.58334491 -.00009791  00000-0 -59807-3 0  9992,2 52830  53.2138 277.4818 0001949  53.0464 246.4406 15.08829443 16506,6917.913000000001,95.438,541.126,538.429,0.0
52830.0,STARLINK-4091,PAYLOAD,2022-09-29 22:00:00,15.08806347,0.0001848,53.2146,275.9838,60.5617,250.5135,0.0032724,0.0005212999999999,0.0,0 STARLINK-4091,1 52830U 22062A   22272.91667824  .00052130  00000-0  32724-2 0  9999,2 52830  53.2146 275.9838 0001848  60.5617 250.5135 15.08806347  1306,6917.983,95.44,541.127,538.57,0.0
52830.0,STARLINK-4091,PAYLOAD,2022-09-30 06:00:02,15.08843101,0.0001988,53.2153,274.4889,57.0353,265.6804,-0.00074126,-0.00012067,0.0,0 STARLINK-4091,1 52830U 22062A   22273.25002315 -.00012067  00000-0 -74126-3 0  9995,2 52830  53.2153 274.4889 0001988  57.0353 265.6804 15.08843101 16605,6917.871,95.437,541.111,538.361,0.0
52830.0,STARLINK-4091,PAYLOAD,2022-09-30 14:00:01,15.08854762,0.0001989,53.2143,272.9921,54.8097,279.431,-0.00079889,-0.00012985,0.0,0 STARLINK-4091,1 52830U 22062A   22273.58334491 -.00012985  00000-0 -79889-3 0  9994,2 52830  53.2143 272.9921 0001989  54.8097 279.4310 15.08854762  1306,6917.835,95.437,541.076,538.3240000000002,0.0
52830.0,STARLINK-4091,PAYLOAD,2022-09-30 22:00:00,15.08833013,0.0001904,53.2144,271.4941,62.0978,283.7595,0.0035756,0.00057068,0.0,0 STARLINK-4091,1 52830U 22062A   22273.91667824  .00057068  00000-0  35756-2 0  9993,2 52830  53.2144 271.4941 0001904  62.0978 283.7595 15.08833013 16708,6917.901999999999,95.438,541.0840000000002,538.45,0.0
52830.0,STARLINK-4091,PAYLOAD,2022-10-01 14:00:01,15.08861711,0.0001924,53.2145,268.5026,53.5768,315.5026,-0.0016163,-0.00025935,0.0,0 STARLINK-4091,1 52830U 22062A   22274.58334491 -.00025935  00000-0 -16163-2 0  9999,2 52830  53.2145 268.5026 0001924  53.5768 315.5026 15.08861711  1303,6917.814,95.436,541.01,538.3480000000002,0.0
52830.0,STARLINK-4091,PAYLOAD,2022-10-01 22:00:00,15.08833061,0.0001774,53.2146,267.0047,59.3935,321.302,-0.0001318,-2.385e-05,0.0,0 STARLINK-4091,1 52830U 22062A   22274.91667824 -.00002385  00000-0 -13180-3 0  9996,2 52830  53.2146 267.0047 0001774  59.3935 321.3020 15.08833061  1300,6917.901999999999,95.438,540.994,538.539,0.0
52830.0,STARLINK-4091,PAYLOAD,2022-10-02 14:00:01,15.08833488,0.000184,53.2147,264.0133,51.3107,352.534,-0.0010702,-0.00017277,0.0,0 STARLINK-4091,1 52830U 22062A   22275.58334491 -.00017277  00000-0 -10702-2 0  9993,2 52830  53.2147 264.0133 0001840  51.3107 352.5340 15.08833488  1305,6917.9,95.438,541.038,538.492,0.0
52830.0,STARLINK-4091,PAYLOAD,2022-10-02 22:00:00,15.088166199999998,0.0001764,53.2149,262.5156,58.8942,356.5356,0.0032794,0.00052258,0.0,0 STARLINK-4091,1 52830U 22062A   22275.91667824  .00052258  00000-0  32794-2 0  9990,2 52830  53.2149 262.5156 0001764  58.8942 356.5356 15.08816620  1309,6917.9519999999975,95.439,541.0369999999998,538.597,0.0
52830.0,STARLINK-4091,PAYLOAD,2022-10-03 14:00:01,15.08876867,0.0001818,53.2149,259.5241,52.4655,26.1599,-0.0033313,-0.0005297,0.0,0 STARLINK-4091,1 52830U 22062A   22276.58334491 -.00052970  00000-0 -33313-2 0  9996,2 52830  53.2149 259.5241 0001818  52.4655  26.1599 15.08876867  1309,6917.768,95.435,540.89,538.375,0.0
52830.0,STARLINK-4091,PAYLOAD,2022-10-03 22:00:00,15.08847181,0.0001669,53.2151,258.0264,58.2307,32.0087,0.00087366,0.00013646,0.0,0 STARLINK-4091,1 52830U 22062A   22276.91667824  .00013646  00000-0  87366-3 0  9995,2 52830  53.2151 258.0264 0001669  58.2307  32.0087 15.08847181  1308,6917.858,95.437,540.878,538.569,0.0
52830.0,STARLINK-4091,PAYLOAD,2022-10-04 06:00:00,15.08841654,0.0001758,53.215,256.5318,51.7438,50.1101,-0.00065464,-0.00010692,0.0,0 STARLINK-4091,1 52830U 22062A   22277.25001157 -.00010692  00000-0 -65464-3 0  9999,2 52830  53.2150 256.5318 0001758  51.7438  50.1101 15.08841654 17216,6917.875,95.437,540.956,538.524,0.0
52830.0,STARLINK-4091,PAYLOAD,2022-10-04 14:00:01,15.08865509,0.0001654,53.2149,255.0347,50.9572,62.4939,-0.0045836,-0.00072553,0.0,0 STARLINK-4091,1 52830U 22062A   22277.58334491 -.00072553  00000-0 -45836-2 0  9999,2 52830  53.2149 255.0347 0001654  50.9572  62.4939 15.08865509  1308,6917.802,95.436,540.812,538.523,0.0
52830.0,STARLINK-4091,PAYLOAD,2022-10-04 22:00:00,15.08806695,0.0001610999999999,53.2152,253.5372,60.0639,64.9847,0.0026929,0.00042791,0.0,0 STARLINK-4091,1 52830U 22062A   22277.91667824  .00042791  00000-0  26929-2 0  9996,2 52830  53.2152 253.5372 0001611  60.0639  64.9847 15.08806695  1308,6917.982,95.44,540.962,538.7330000000002,0.0
52830.0,STARLINK-4091,PAYLOAD,2022-10-05 08:00:01,15.08854611,0.0001672,53.2164,251.6707,56.0504,173.4673,-0.0071013,-0.00111604,0.0,0 STARLINK-4091,1 52830U 22062A   22278.33334491 -.00111604  00000-0 -71013-2 0  9990,2 52830  53.2164 251.6707 0001672  56.0504 173.4673 15.08854611 17373,6917.8359999999975,95.437,540.857,538.544,0.0
52830.0,STARLINK-4091,PAYLOAD,2022-10-05 14:00:01,15.08742351,0.0001539,53.2167,250.548,59.8772,88.3961,0.0087482,0.00141368,0.0,0 STARLINK-4091,1 52830U 22062A   22278.58335648  .00141368  00000-0  87482-2 0  9997,2 52830  53.2167 250.5480 0001539  59.8772  88.3961 15.08742351  1309,6918.179,95.444,541.109,538.979,0.0
